FLOCK 1C 7
1 40026U 14033S   20285.79762901 +.00000442 +00000-0 +50593-4 0  9997
2 40026 097.9511 217.9596 0009555 270.7502 089.2621 14.91003875342636
FLOCK 1C 1
1 40027U 14033T   20285.84277332 +.00000553 +00000-0 +62880-4 0  9998
2 40027 097.9443 215.7898 0011117 275.1052 084.8897 14.90289722342517
POPSAT HIP 1
1 40028U 14033U   20286.19211066  .00000393  00000-0  47706-4 0  9992
2 40028  97.9209 211.2743 0012371 277.9072  82.0729 14.89026548342947
FLOCK 1C 2
1 40029U 14033V   20285.79254301 +.00000457 +00000-0 +53028-4 0  9992
2 40029 097.9427 215.4409 0012179 271.4124 088.5698 14.90243363342526
FLOCK 1C 4
1 40031U 14033X   20285.79210952 +.00000292 +00000-0 +36429-4 0  9992
2 40031 097.9437 214.9075 0012736 269.6721 090.3036 14.89772389342478
QB50P2
1 40032U 14033Y   20285.78474197 +.00000243 +00000-0 +31991-4 0  9990
2 40032 097.9026 207.2883 0010358 275.0856 084.9178 14.88726891342813
FLOCK 1C 11
1 40033U 14033Z   20286.10814259  .00000736  00000-0  79802-4 0  9995
2 40033  97.9588 220.3947 0010733 255.1566 104.8463 14.91236465343286
ANTELSAT
1 40034U 14033AA  20285.66441547 +.00000194 +00000-0 +35932-4 0  9996
2 40034 097.7004 135.7126 0058348 344.5944 015.3487 14.74309150339531
FLOCK 1C 9
1 40035U 14033AB  20285.86081778 +.00000467 +00000-0 +53921-4 0  9996
2 40035 097.9492 216.6623 0010170 262.5187 097.4875 14.90382279342565
FLOCK 1C 6
1 40036U 14033AC  20285.86346899 +.00000454 +00000-0 +52444-4 0  9990
2 40036 097.9525 217.3597 0010376 262.9837 097.0201 14.90486409342564
PERSEUS M2
1 40037U 14033AD  20285.77698510 +.00000066 +00000-0 +13631-4 0  9995
2 40037 097.8842 201.2210 0013065 293.6524 066.3320 14.86572239341946
FLOCK 1C 5
1 40038U 14033AE  20285.82844933 +.00000681 +00000-0 +75692-4 0  9992
2 40038 097.9487 216.7023 0012552 262.4914 097.4878 14.90454149342569
PERSEUS M1
1 40039U 14033AF  20286.01821185  .00000102  00000-0  17871-4 0  9992
2 40039  97.8800 200.1093 0012867 290.7673  69.2163 14.86192789342396
FLOCK 1C 8
1 40040U 14033AG  20285.78921381 +.00000807 +00000-0 +84395-4 0  9993
2 40040 097.9760 224.4698 0011157 236.4431 123.5723 14.92458250342902
FLOCK 1C 3
1 40041U 14033AH  20285.86384009 +.00000509 +00000-0 +58567-4 0  9994
2 40041 097.9445 215.6690 0011463 262.3370 097.6545 14.90088576342481
POLYITAN 1
1 40042U 14033AJ  20285.78103134 +.00000272 +00000-0 +35027-4 0  9997
2 40042 097.9242 210.6852 0013119 268.3057 091.6657 14.88956906342307
TIGRISAT
1 40043U 14033AK  20286.14973683  .00000120  00000-0  25043-4 0  9992
2 40043  97.6952 136.6875 0059544 342.8441  17.0755 14.74416590339540
LEMUR 1
1 40044U 14033AL  20285.59200576  .00000122  00000-0  25445-4 0  9993
2 40044  97.6953 135.5317 0058779 346.8340  13.1332 14.74250458339426
AEROCUBE 6A
1 40045U 14033AM  20285.84487336 +.00000219 +00000-0 +38664-4 0  9997
2 40045 097.7204 142.4543 0057346 334.7451 025.0957 14.75631206339276
AEROCUBE 6B
1 40046U 14033AN  20285.85506958 +.00000235 +00000-0 +40963-4 0  9994
2 40046 097.7107 141.6010 0056460 333.7572 026.0779 14.75631312339279
UKUBE 1
1 40074U 14037F   20286.12473623  .00000259  00000-0  38030-4 0  9990
2 40074  98.4512 121.4061 0005167  96.8132 263.3660 14.84336997339060
BRITE-PL 2
1 40119U 14049B   20285.85946955 +.00000075 +00000-0 +15304-4 0  9990
2 40119 097.8942 016.9298 0018825 089.1490 271.1881 14.84540775332962
FIREBIRD 4
1 40378U 15003C   20286.13854643  .00001505  00000-0  60935-4 0  9991
2 40378  99.0868  10.2937 0121735 284.2261  74.5473 15.20508881315041
GRIFEX
1 40379U 15003D   20286.13104527  .00000927  00000-0  42798-4 0  9995
2 40379  99.0912   1.5027 0131109 311.7490  47.2588 15.16722967314536
EXOCUBE
1 40380U 15003E   20285.76523614 +.00000780 +00000-0 +38478-4 0  9994
2 40380 099.0975 356.3853 0136550 329.0734 030.2502 15.14628015314156
DEORBITSAIL
1 40719U 15032E   20285.74976099 +.00000341 +00000-0 +55368-4 0  9999
2 40719 097.8535 171.4340 0015755 187.6219 172.4755 14.77087568283262
TIANWANG 1C (TW-1C)
1 40926U 15051B   20286.13396860  .00032688  00000-0  25414-3 0  9993
2 40926  97.0697 338.9909 0004934  26.6920  29.3827 15.71693159285314
TIANWANG 1B (TW-1B)
1 40927U 15051C   20286.11961177  .00026525  00000-0  23818-3 0  9990
2 40927  97.0734 337.0051 0006001  42.7860  14.0764 15.68227556285067
TIANWANG 1A (TW-1A)
1 40928U 15051D   20286.07085071  .00002803  00000-0  64803-4 0  9999
2 40928  97.1026 311.0567 0011998 115.3986 300.6239 15.43249942283351
LEMUR 2 JOEL
1 40932U 15052C   20285.47016022  .00000904  00000-0  34584-4 0  9991
2 40932   6.0075 207.0570 0013563 167.3526 192.6943 14.78021286272630
LEMUR 2 CHRIS
1 40933U 15052D   20284.67347491  .00000870  00000-0  29678-4 0  9990
2 40933   6.0054 209.5241 0014179 163.9600 196.0977 14.78164263272547
LEMUR 2 PETER
1 40935U 15052F   20285.51249950  .00000934  00000-0  40219-4 0  9992
2 40935   6.0039 222.0265 0010203 132.1488 227.9507 14.77320402272477
EXACTVIEW 9
1 40936U 15052G   20285.81682121  .00000793  00000-0  21775-4 0  9996
2 40936   6.0031 230.5358 0009945 111.9806 248.1379 14.76601419272456
ATHENOXAT 1
1 41168U 15077C   20286.13917613  .00002105  00000-0  73989-4 0  9997
2 41168  14.9887 285.1464 0011151 313.0933  46.8455 15.14628904267052
GALASSIA
1 41170U 15077E   20285.63827794  .00002031  00000-0  69310-4 0  9995
2 41170  14.9890 280.2870 0012468 333.9531  26.0163 15.14914800267052
VELOX 2
1 41171U 15077F   20285.76919517 +.00001553 +00000-0 +49937-4 0  9996
2 41171 014.9921 327.8219 0008619 223.2937 136.6706 15.11861959266645
HORYU 4
1 41340U 16012D   20285.76610217  .00000514  00000-0  31976-4 0  9999
2 41340  31.0058 311.0298 0013843 223.4089 136.5456 15.01578970255377
OUFTI-1
1 41458U 16025C   20285.87782452 +.00003497 +00000-0 +17547-3 0  9996
2 41458 098.1155 042.7068 0162602 177.2301 182.9865 15.07221453245019
E-STAR-2
1 41459U 16025D   20285.89168717  .00001808  00000-0  93739-4 0  9993
2 41459  98.1132  42.0382 0164060 179.4092 180.7365 15.06747754244979
AAUSAT 4
1 41460U 16025E   20286.11138527  .00003425  00000-0  16760-3 0  9992
2 41460  98.1109  45.0303 0152949 166.0775 194.4738 15.09222376245231
FLOCK 2P 6
1 41606U 16040H   20285.90746701 +.00002452 +00000-0 +95860-4 0  9994
2 41606 097.3146 347.2725 0011519 117.9239 242.3168 15.26744411239520
FLOCK 2P 11
1 41608U 16040K   20285.88292588 +.00003296 +00000-0 +11918-3 0  9990
2 41608 097.3095 348.3044 0010887 112.2938 247.9458 15.29092611239559
FLOCK 2P 2
1 41609U 16040L   20285.71287704  .00002795  00000-0  10618-3 0  9996
2 41609  97.3138 347.2103 0010959 116.9909 243.2450 15.27584293239428
FLOCK 2P 9
1 41610U 16040M   20285.79207844 +.00001606 +00000-0 +63867-4 0  9998
2 41610 097.3141 346.9275 0011933 117.7771 242.4680 15.26656745239291
FLOCK 2P 4
1 41611U 16040N   20285.88312336 +.00003006 +00000-0 +11084-3 0  9991
2 41611 097.3148 348.6337 0010784 122.9765 237.2513 15.28513739239543
FLOCK 2P 10
1 41612U 16040P   20285.88599546 +.00001344 +00000-0 +53738-4 0  9998
2 41612 097.3190 347.9895 0011410 126.7016 233.5273 15.26767667239484
FLOCK 2P 8
1 41613U 16040Q   20285.88803453 +.00001523 +00000-0 +60747-4 0  9991
2 41613 097.3183 347.7385 0011569 125.2144 235.0179 15.26653327239478
FLOCK 2P 12
1 41614U 16040R   20285.65161899  .00001573  00000-0  62632-4 0  9998
2 41614  97.3193 347.8068 0011525 127.5544 232.6744 15.26659994239444
FLOCK 2P 7
1 41615U 16040S   20285.91027679 +.00003371 +00000-0 +12245-3 0  9997
2 41615 097.3119 348.6582 0010622 121.5944 238.6334 15.28928252239560
FLOCK 2P 5
1 41616U 16040T   20285.72492945 +.00001906 +00000-0 +73224-4 0  9996
2 41616 097.3173 348.0936 0010989 124.1297 236.0986 15.27604468239456
FLOCK 2P 1
1 41617U 16040U   20285.86370763 +.00002954 +00000-0 +10945-3 0  9999
2 41617 097.3153 348.7069 0010693 122.1706 238.0573 15.28369020239530
FLOCK 2P 3
1 41618U 16040V   20285.86558868 +.00001320 +00000-0 +52986-4 0  9992
2 41618 097.3202 348.0261 0011326 125.8886 234.3406 15.26656855239476
BEESAT 4
1 41619U 16040W   20286.15591823  .00001342  00000-0  57651-4 0  9992
2 41619  97.3070 342.8668 0012466 123.8032 236.4394 15.24311623227172
3CAT-2
1 41732U 16051B   20286.21004478  .00001325  00000-0  51352-4 0  9995
2 41732  97.3676 202.8364 0012316 312.7002 207.9601 15.27864841231580
CANX-7
1 41788U 16059F   20286.19785805  .00008603  00000-0  11391-2 0  9994
2 41788  98.2574  17.1432 0024574 276.2799  83.5631 14.79957410217077
ALSAT 1N
1 41789U 16059G   20286.13131137  .00000065  00000-0  21165-4 0  9998
2 41789  98.0078 341.3248 0027070 297.0738  62.7716 14.64347676216107
RAVAN
1 41849U 16067B   20285.85602662  .00000724  00000-0  65440-4 0  9994
2 41849  97.9418  37.7554 0008353 203.9511 156.1324 14.98651519214050
CELTEE 1
1 41850U 16067C   20285.82590755 -.00000244 +00000-0 -15808-4 0  9994
2 41850 097.9357 035.1016 0008015 215.2754 144.7938 14.97238200213914
OPTICUBE 04
1 41851U 16067D   20285.84385581  .00000318  00000-0  32982-4 0  9998
2 41851  97.9342  34.6731 0008187 215.1845 144.8836 14.96959842213893
AEROCUBE 8D
1 41852U 16067E   20285.86020933 +.00000842 +00000-0 +78495-4 0  9999
2 41852 097.9356 034.5330 0008640 214.4978 145.5684 14.96975346213870
AEROCUBE 8C
1 41853U 16067F   20285.89449158 -.00000069 +00000-0 -69481-6 0  9997
2 41853 097.9344 034.4617 0009252 219.5668 140.4878 14.96935692213876
PROMETHEUS 2-1
1 41854U 16067G   20285.83798464 +.00000393 +00000-0 +39187-4 0  9995
2 41854 097.9351 034.8095 0009719 217.7219 142.3322 14.97288421213887
PROMETHEUS 2-3
1 41855U 16067H   20285.90452231 +.00000377 +00000-0 +37798-4 0  9991
2 41855 097.9354 034.9155 0009897 217.9846 142.0678 14.97297781213895
LEMUR 2 XIAOQING
1 41871U 16062C   20285.86783454 +.00002497 +00000-0 +10536-3 0  9998
2 41871 051.6387 062.2392 0005280 267.5131 092.5244 15.27164899216004
LEMUR 2 SOKOLSKY
1 41872U 16062D   20285.84790331 +.00000639 +00000-0 +36750-4 0  9992
2 41872 051.6853 068.6367 0002919 031.9209 328.1947 15.26990190215973
LEMUR 2 ANUBHAVTHAKUR
1 41873U 16062E   20285.87155176 +.00000649 +00000-0 +40441-4 0  9991
2 41873 051.6740 084.8743 0004086 263.7752 096.2760 15.23792897215700
